[{"OBJECT_NAME":"ONEWEB-0132","OBJECT_ID":"2020-100W","EPOCH":"2026-04-30T04:27:39.063456","MEAN_MOTION":13.12444641,"ECCENTRICITY":0.0001844,"INCLINATION":87.8984,"RA_OF_ASC_NODE":0.215,"ARG_OF_PERICENTER":79.8837,"MEAN_ANOMALY":280.25,"EPHEMERIS_TYPE":0,"CLASSIFICATION_TYPE":"U","NORAD_CAT_ID":47278,"ELEMENT_SET_NO":999,"REV_AT_EPOCH":25828,"BSTAR":0.0012135,"MEAN_MOTION_DOT":4.49e-06,"MEAN_MOTION_DDOT":0.0},{"OBJECT_NAME":"ONEWEB-0133","OBJECT_ID":"2020-100X","EPOCH":"2026-04-30T03:02:04.448832","MEAN_MOTION":13.12442553,"ECCENTRICITY":0.0001902,"INCLINATION":87.8998,"RA_OF_ASC_NODE":0.1974,"ARG_OF_PERICENTER":78.2775,"MEAN_ANOMALY":281.8567,"EPHEMERIS_TYPE":0,"CLASSIFICATION_TYPE":"U","NORAD_CAT_ID":47279,"ELEMENT_SET_NO":999,"REV_AT_EPOCH":25843,"BSTAR":0.00088429,"MEAN_MOTION_DOT":3.31e-06,"MEAN_MOTION_DDOT":0.0},{"OBJECT_NAME":"ONEWEB-0134","OBJECT_ID":"2020-100Y","EPOCH":"2026-04-30T02:18:20.538720","MEAN_MOTION":13.12444853,"ECCENTRICITY":0.0001788,"INCLINATION":87.8998,"RA_OF_ASC_NODE":0.2005,"ARG_OF_PERICENTER":72.3496,"MEAN_ANOMALY":287.7828,"EPHEMERIS_TYPE":0,"CLASSIFICATION_TYPE":"U","NORAD_CAT_ID":47280,"ELEMENT_SET_NO":999,"REV_AT_EPOCH":25840,"BSTAR":0.00020202000000000002,"MEAN_MOTION_DOT":8.5e-07,"MEAN_MOTION_DDOT":0.0},{"OBJECT_NAME":"ONEWEB-0135","OBJECT_ID":"2020-100Z","EPOCH":"2026-04-30T05:16:26.497632","MEAN_MOTION":13.12442986,"ECCENTRICITY":0.0001873,"INCLINATION":87.8984,"RA_OF_ASC_NODE":0.205,"ARG_OF_PERICENTER":71.4523,"MEAN_ANOMALY":288.6809,"EPHEMERIS_TYPE":0,"CLASSIFICATION_TYPE":"U","NORAD_CAT_ID":47281,"ELEMENT_SET_NO":999,"REV_AT_EPOCH":25844,"BSTAR":-0.0006449,"MEAN_MOTION_DOT":-2.19e-06,"MEAN_MOTION_DDOT":0.0},{"OBJECT_NAME":"ONEWEB-0136","OBJECT_ID":"2020-100AA","EPOCH":"2026-04-30T03:53:29.425632","MEAN_MOTION":13.12444809,"ECCENTRICITY":0.0001766,"INCLINATION":87.8994,"RA_OF_ASC_NODE":0.1939,"ARG_OF_PERICENTER":70.1452,"MEAN_ANOMALY":289.9866,"EPHEMERIS_TYPE":0,"CLASSIFICATION_TYPE":"U","NORAD_CAT_ID":47282,"ELEMENT_SET_NO":999,"REV_AT_EPOCH":25836,"BSTAR":-0.0007729200000000001,"MEAN_MOTION_DOT":-2.65e-06,"MEAN_MOTION_DDOT":0.0},{"OBJECT_NAME":"ONEWEB-0137","OBJECT_ID":"2020-100AB","EPOCH":"2026-04-30T04:42:17.608896","MEAN_MOTION":13.12443811,"ECCENTRICITY":0.0001705,"INCLINATION":87.8998,"RA_OF_ASC_NODE":0.1949,"ARG_OF_PERICENTER":85.2438,"MEAN_ANOMALY":274.8885,"EPHEMERIS_TYPE":0,"CLASSIFICATION_TYPE":"U","NORAD_CAT_ID":47283,"ELEMENT_SET_NO":999,"REV_AT_EPOCH":25827,"BSTAR":0.0012693,"MEAN_MOTION_DOT":4.69e-06,"MEAN_MOTION_DDOT":0.0},{"OBJECT_NAME":"ONEWEB-0138","OBJECT_ID":"2020-100AC","EPOCH":"2026-04-30T02:20:49.311744","MEAN_MOTION":13.12444528,"ECCENTRICITY":0.00017,"INCLINATION":87.8994,"RA_OF_ASC_NODE":0.2217,"ARG_OF_PERICENTER":73.5279,"MEAN_ANOMALY":286.6036,"EPHEMERIS_TYPE":0,"CLASSIFICATION_TYPE":"U","NORAD_CAT_ID":47284,"ELEMENT_SET_NO":999,"REV_AT_EPOCH":25834,"BSTAR":0.00028376000000000003,"MEAN_MOTION_DOT":1.15e-06,"MEAN_MOTION_DDOT":0.0},{"OBJECT_NAME":"ONEWEB-0139","OBJECT_ID":"2020-100AD","EPOCH":"2026-04-30T05:09:20.450592","MEAN_MOTION":13.12441545,"ECCENTRICITY":0.000172,"INCLINATION":87.8993,"RA_OF_ASC_NODE":0.1853,"ARG_OF_PERICENTER":79.73,"MEAN_ANOMALY":280.4023,"EPHEMERIS_TYPE":0,"CLASSIFICATION_TYPE":"U","NORAD_CAT_ID":47285,"ELEMENT_SET_NO":999,"REV_AT_EPOCH":25843,"BSTAR":-0.00023121,"MEAN_MOTION_DOT":-7e-07,"MEAN_MOTION_DDOT":0.0},{"OBJECT_NAME":"ONEWEB-0140","OBJECT_ID":"2020-100AE","EPOCH":"2026-04-30T02:13:28.237152","MEAN_MOTION":13.12444791,"ECCENTRICITY":0.0001918,"INCLINATION":87.8995,"RA_OF_ASC_NODE":0.1994,"ARG_OF_PERICENTER":79.874,"MEAN_ANOMALY":280.2605,"EPHEMERIS_TYPE":0,"CLASSIFICATION_TYPE":"U","NORAD_CAT_ID":47286,"ELEMENT_SET_NO":999,"REV_AT_EPOCH":25838,"BSTAR":-0.00028537,"MEAN_MOTION_DOT":-9e-07,"MEAN_MOTION_DDOT":0.0},{"OBJECT_NAME":"ONEWEB-0141","OBJECT_ID":"2020-100AF","EPOCH":"2026-04-30T05:08:55.621824","MEAN_MOTION":13.12442635,"ECCENTRICITY":0.0001556,"INCLINATION":87.8995,"RA_OF_ASC_NODE":0.1807,"ARG_OF_PERICENTER":90.142,"MEAN_ANOMALY":269.9887,"EPHEMERIS_TYPE":0,"CLASSIFICATION_TYPE":"U","NORAD_CAT_ID":47287,"ELEMENT_SET_NO":999,"REV_AT_EPOCH":25838,"BSTAR":-9.6348e-05,"MEAN_MOTION_DOT":-2.2e-07,"MEAN_MOTION_DDOT":0.0},{"OBJECT_NAME":"ONEWEB-0142","OBJECT_ID":"2020-100AG","EPOCH":"2026-04-30T04:52:13.976256","MEAN_MOTION":13.1245359,"ECCENTRICITY":0.0001447,"INCLINATION":87.899,"RA_OF_ASC_NODE":0.2071,"ARG_OF_PERICENTER":82.9614,"MEAN_ANOMALY":277.168,"EPHEMERIS_TYPE":0,"CLASSIFICATION_TYPE":"U","NORAD_CAT_ID":47288,"ELEMENT_SET_NO":999,"REV_AT_EPOCH":25837,"BSTAR":0.0050921000000000004,"MEAN_MOTION_DOT":1.845e-05,"MEAN_MOTION_DDOT":0.0},{"OBJECT_NAME":"ONEWEB-0143","OBJECT_ID":"2020-100AH","EPOCH":"2026-04-30T05:06:41.199840","MEAN_MOTION":13.12442532,"ECCENTRICITY":0.0001698,"INCLINATION":87.8994,"RA_OF_ASC_NODE":0.2017,"ARG_OF_PERICENTER":81.0945,"MEAN_ANOMALY":279.0376,"EPHEMERIS_TYPE":0,"CLASSIFICATION_TYPE":"U","NORAD_CAT_ID":47289,"ELEMENT_SET_NO":999,"REV_AT_EPOCH":25835,"BSTAR":7.066200000000001e-05,"MEAN_MOTION_DOT":3.8e-07,"MEAN_MOTION_DDOT":0.0},{"OBJECT_NAME":"ONEWEB-0144","OBJECT_ID":"2020-100AJ","EPOCH":"2026-04-30T04:25:12.201600","MEAN_MOTION":13.12443639,"ECCENTRICITY":0.0001485,"INCLINATION":87.8999,"RA_OF_ASC_NODE":0.1792,"ARG_OF_PERICENTER":71.9294,"MEAN_ANOMALY":288.1997,"EPHEMERIS_TYPE":0,"CLASSIFICATION_TYPE":"U","NORAD_CAT_ID":47290,"ELEMENT_SET_NO":999,"REV_AT_EPOCH":25827,"BSTAR":0.001066,"MEAN_MOTION_DOT":3.96e-06,"MEAN_MOTION_DDOT":0.0},{"OBJECT_NAME":"ONEWEB-0145","OBJECT_ID":"2020-100AK","EPOCH":"2026-04-30T03:43:44.118336","MEAN_MOTION":13.12444104,"ECCENTRICITY":0.0001672,"INCLINATION":87.8988,"RA_OF_ASC_NODE":0.2179,"ARG_OF_PERICENTER":79.3664,"MEAN_ANOMALY":280.7653,"EPHEMERIS_TYPE":0,"CLASSIFICATION_TYPE":"U","NORAD_CAT_ID":47291,"ELEMENT_SET_NO":999,"REV_AT_EPOCH":25846,"BSTAR":-0.0010348,"MEAN_MOTION_DOT":-3.6e-06,"MEAN_MOTION_DDOT":0.0},{"OBJECT_NAME":"ONEWEB-0146","OBJECT_ID":"2020-100AL","EPOCH":"2026-04-30T05:28:38.138016","MEAN_MOTION":13.12443446,"ECCENTRICITY":0.0002085,"INCLINATION":87.8994,"RA_OF_ASC_NODE":0.1918,"ARG_OF_PERICENTER":84.3657,"MEAN_ANOMALY":275.7709,"EPHEMERIS_TYPE":0,"CLASSIFICATION_TYPE":"U","NORAD_CAT_ID":47292,"ELEMENT_SET_NO":999,"REV_AT_EPOCH":25838,"BSTAR":-0.0010719,"MEAN_MOTION_DOT":-3.73e-06,"MEAN_MOTION_DDOT":0.0},{"OBJECT_NAME":"ONEWEB-0147","OBJECT_ID":"2020-100AM","EPOCH":"2026-04-30T04:39:51.164352","MEAN_MOTION":13.12442859,"ECCENTRICITY":0.0001835,"INCLINATION":87.8995,"RA_OF_ASC_NODE":0.1795,"ARG_OF_PERICENTER":76.2353,"MEAN_ANOMALY":283.898,"EPHEMERIS_TYPE":0,"CLASSIFICATION_TYPE":"U","NORAD_CAT_ID":47293,"ELEMENT_SET_NO":999,"REV_AT_EPOCH":25827,"BSTAR":0.0013425000000000002,"MEAN_MOTION_DOT":4.96e-06,"MEAN_MOTION_DDOT":0.0},{"OBJECT_NAME":"ONEWEB-0115","OBJECT_ID":"2021-025A","EPOCH":"2026-04-30T02:35:02.038272","MEAN_MOTION":13.13470004,"ECCENTRICITY":0.00018,"INCLINATION":87.8966,"RA_OF_ASC_NODE":329.8,"ARG_OF_PERICENTER":86.0623,"MEAN_ANOMALY":274.0712,"EPHEMERIS_TYPE":0,"CLASSIFICATION_TYPE":"U","NORAD_CAT_ID":48042,"ELEMENT_SET_NO":999,"REV_AT_EPOCH":24728,"BSTAR":0.0010316000000000001,"MEAN_MOTION_DOT":3.89e-06,"MEAN_MOTION_DDOT":0.0},{"OBJECT_NAME":"ONEWEB-0152","OBJECT_ID":"2021-025B","EPOCH":"2026-04-30T01:04:50.294784","MEAN_MOTION":13.13469124,"ECCENTRICITY":0.0001873,"INCLINATION":87.896,"RA_OF_ASC_NODE":329.8107,"ARG_OF_PERICENTER":86.1126,"MEAN_ANOMALY":274.0218,"EPHEMERIS_TYPE":0,"CLASSIFICATION_TYPE":"U","NORAD_CAT_ID":48043,"ELEMENT_SET_NO":999,"REV_AT_EPOCH":24723,"BSTAR":0.0005268800000000001,"MEAN_MOTION_DOT":2.05e-06,"MEAN_MOTION_DDOT":0.0},{"OBJECT_NAME":"ONEWEB-0153","OBJECT_ID":"2021-025C","EPOCH":"2026-04-30T02:22:50.238048","MEAN_MOTION":13.13471025,"ECCENTRICITY":0.000165,"INCLINATION":87.8956,"RA_OF_ASC_NODE":329.8041,"ARG_OF_PERICENTER":85.9935,"MEAN_ANOMALY":274.1383,"EPHEMERIS_TYPE":0,"CLASSIFICATION_TYPE":"U","NORAD_CAT_ID":48044,"ELEMENT_SET_NO":999,"REV_AT_EPOCH":24723,"BSTAR":0.00086302,"MEAN_MOTION_DOT":3.28e-06,"MEAN_MOTION_DDOT":0.0},{"OBJECT_NAME":"ONEWEB-0154","OBJECT_ID":"2021-025D","EPOCH":"2026-04-30T02:17:56.870304","MEAN_MOTION":13.13470094,"ECCENTRICITY":0.0001783,"INCLINATION":87.8957,"RA_OF_ASC_NODE":329.8024,"ARG_OF_PERICENTER":83.2496,"MEAN_ANOMALY":276.8836,"EPHEMERIS_TYPE":0,"CLASSIFICATION_TYPE":"U","NORAD_CAT_ID":48045,"ELEMENT_SET_NO":999,"REV_AT_EPOCH":24719,"BSTAR":0.00053837,"MEAN_MOTION_DOT":2.09e-06,"MEAN_MOTION_DDOT":0.0},{"OBJECT_NAME":"ONEWEB-0116","OBJECT_ID":"2021-025E","EPOCH":"2026-04-30T03:14:01.646592","MEAN_MOTION":13.13469816,"ECCENTRICITY":0.0001875,"INCLINATION":87.8968,"RA_OF_ASC_NODE":329.7869,"ARG_OF_PERICENTER":86.1305,"MEAN_ANOMALY":274.0039,"EPHEMERIS_TYPE":0,"CLASSIFICATION_TYPE":"U","NORAD_CAT_ID":48046,"ELEMENT_SET_NO":999,"REV_AT_EPOCH":24734,"BSTAR":-0.00043113,"MEAN_MOTION_DOT":-1.45e-06,"MEAN_MOTION_DDOT":0.0},{"OBJECT_NAME":"ONEWEB-0150","OBJECT_ID":"2021-025F","EPOCH":"2026-04-30T02:39:54.462528","MEAN_MOTION":13.13470135,"ECCENTRICITY":0.0001657,"INCLINATION":87.8966,"RA_OF_ASC_NODE":329.7898,"ARG_OF_PERICENTER":92.2784,"MEAN_ANOMALY":267.8535,"EPHEMERIS_TYPE":0,"CLASSIFICATION_TYPE":"U","NORAD_CAT_ID":48047,"ELEMENT_SET_NO":999,"REV_AT_EPOCH":24723,"BSTAR":0.00094838,"MEAN_MOTION_DOT":3.59e-06,"MEAN_MOTION_DDOT":0.0},{"OBJECT_NAME":"ONEWEB-0107","OBJECT_ID":"2021-025G","EPOCH":"2026-04-30T02:42:19.672416","MEAN_MOTION":13.13470119,"ECCENTRICITY":0.0001448,"INCLINATION":87.8969,"RA_OF_ASC_NODE":329.7847,"ARG_OF_PERICENTER":83.7267,"MEAN_ANOMALY":276.4027,"EPHEMERIS_TYPE":0,"CLASSIFICATION_TYPE":"U","NORAD_CAT_ID":48048,"ELEMENT_SET_NO":999,"REV_AT_EPOCH":24721,"BSTAR":0.0009484200000000001,"MEAN_MOTION_DOT":3.59e-06,"MEAN_MOTION_DDOT":0.0}]